IRIDIUM 150             
1 43257U 18030J   23305.52869337  .00000605  00000+0  20880-3 0  9990
2 43257  86.3960 331.1365 0002123 103.2996 256.8437 14.34215497292777
IRIDIUM 143             
1 43258U 18030K   23304.81198939  .00000410  00000+0  13950-3 0  9999
2 43258  86.3968 331.4903 0002313  99.2890 260.8568 14.34213339292587
IRIDIUM 161             
1 43478U 18047C   23305.04608163  .00000224  00000+0  60678-4 0  9995
2 43478  86.4462 129.3664 0002015  88.7738 271.3694 14.43274889286792
IRIDIUM 152             
1 43479U 18047D   23304.92426121  .00000138  00000+0  42098-4 0  9994
2 43479  86.3936 129.2771 0002313  91.5048 268.6413 14.34219298284994
IRIDIUM 147             
1 43480U 18047E   23304.79103887  .00000111  00000+0  32730-4 0  9995
2 43480  86.3938 129.3211 0001945  84.2082 275.9336 14.34218715284971
IRIDIUM 110             
1 43481U 18047F   23304.93691856  .00000146  00000+0  45137-4 0  9993
2 43481  86.3940 129.3270 0001768  85.1098 275.0300 14.34217700284986
IRIDIUM 162             
1 43482U 18047G   23305.03983840  .00000214  00000+0  57483-4 0  9996
2 43482  86.4461 129.2722 0002036  88.5381 271.6053 14.43280314286786
IRIDIUM 160             
1 43569U 18061A   23304.88276069  .00000215  00000+0  69781-4 0  9993
2 43569  86.3928  97.7065 0002282  86.0628 274.0828 14.34219175275870
